{"type":"FeatureCollection","features":[{"type":"Feature","geometry":{"type":"Point","coordinates":[-80.41471556666667,37.22858933333334]},"properties":{"building_id":"VT-201-WEST-ROANOKE-STREET","name":"201 West Roanoke Street","aliases":[],"osm_source":"way/54789295","arrival_kind":"nearby_path","under_construction":false}},{"type":"Feature","geometry":{"type":"Point","coordinates":[-80.4241881125,37.2247806375]},"properties":{"building_id":"VT-AGNEW-HALL","name":"Agnew Hall","aliases":[],"osm_source":"way/43526624","arrival_kind":"nearby_path","under_construction":false}},{"type":"Feature","geometry":{"type":"Point","coordinates":[-80.42077472222223,37.22316714814816]},"properties":{"building_id":"VT-AMBLER-JOHNSTON-HALL-EAST-WING","name":"Ambler Johnston Hall - East Wing","aliases":[],"osm_source":"way/1459997826","arrival_kind":"entrance","under_construction":false}},{"type":"Feature","geometry":{"type":"Point","coordinates":[-80.42119293513515,37.22307587837838]},"properties":{"building_id":"VT-AMBLER-JOHNSTON-HALL-WEST-WING","name":"Ambler Johnston Hall - West Wing","aliases":[],"osm_source":"way/60193822","arrival_kind":"entrance","under_construction":false}},{"type":"Feature","geometry":{"type":"Point","coordinates":[-80.41627602857143,37.22861888571429]},"properties":{"building_id":"VT-ARCHITECTURE-ANNEX","name":"Architecture Annex","aliases":[],"osm_source":"way/32935321","arrival_kind":"entrance","under_construction":false}},{"type":"Feature","geometry":{"type":"Point","coordinates":[-80.41767238,37.22192796]},"properties":{"building_id":"VT-BEAMER-LAWSON-INDOOR-PRACTICE-FACILITY","name":"Beamer-Lawson Indoor Practice Facility","aliases":[],"osm_source":"way/634276491","arrival_kind":"nearby_path","under_construction":false}},{"type":"Feature","geometry":{"type":"Point","coordinates":[-80.42553144285715,37.2300694]},"properties":{"building_id":"VT-BISHOP-FAVRAO-HALL","name":"Bishop-Favrao Hall","aliases":[],"osm_source":"way/43531945","arrival_kind":"entrance","under_construction":false}},{"type":"Feature","geometry":{"type":"Point","coordinates":[-80.42436205090908,37.22962228000001]},"properties":{"building_id":"VT-BURCHARD-HALL","name":"Burchard Hall","aliases":[],"osm_source":"relation/1155649","arrival_kind":"nearby_path","under_construction":false}},{"type":"Feature","geometry":{"type":"Point","coordinates":[-80.42379346500002,37.2290998575]},"properties":{"building_id":"VT-BURRUSS","name":"Burruss Hall","aliases":["BUR"],"osm_source":"relation/1074686","arrival_kind":"entrance","under_construction":false}},{"type":"Feature","geometry":{"type":"Point","coordinates":[-80.42194062857142,37.22603662244897]},"properties":{"building_id":"VT-CAMPBELL-HALL-EAST-WING","name":"Campbell Hall - East Wing","aliases":[],"osm_source":"way/32954439","arrival_kind":"entrance","under_construction":false}},{"type":"Feature","geometry":{"type":"Point","coordinates":[-80.42194062857142,37.22603662244897]},"properties":{"building_id":"VT-CAMPBELL-HALL-MAIN-WING","name":"Campbell Hall - Main Wing","aliases":[],"osm_source":"way/32954439","arrival_kind":"entrance","under_construction":false}},{"type":"Feature","geometry":{"type":"Point","coordinates":[-80.41909012972972,37.228772997297305]},"properties":{"building_id":"VT-NEWMAN-LIB","name":"Carol M. Newman Library","aliases":["Newman Library","Library","Carol Newman Library","LIBR"],"osm_source":"relation/548450","arrival_kind":"entrance","under_construction":false}},{"type":"Feature","geometry":{"type":"Point","coordinates":[-80.41899863809523,37.22254902380952]},"properties":{"building_id":"VT-CASSELL-COLISEUM","name":"Cassell Coliseum","aliases":[],"osm_source":"relation/2422983","arrival_kind":"entrance","under_construction":false}},{"type":"Feature","geometry":{"type":"Point","coordinates":[-80.41817967142858,37.23181864285714]},"properties":{"building_id":"VT-CFA","name":"Center for the Arts (formerly Moss Arts Center)","aliases":["MAC"],"osm_source":"way/357516085","arrival_kind":"entrance","under_construction":false}},{"type":"Feature","geometry":{"type":"Point","coordinates":[-80.42247286999998,37.22387006]},"properties":{"building_id":"VT-CHEATHAM-HALL","name":"Cheatham Hall","aliases":[],"osm_source":"way/26210227","arrival_kind":"entrance","under_construction":false}},{"type":"Feature","geometry":{"type":"Point","coordinates":[-80.42692986857145,37.22942430857143]},"properties":{"building_id":"VT-NCB","name":"Classroom Building (NCB)","aliases":["NCB","New Classroom Building"],"osm_source":"way/457355690","arrival_kind":"entrance","under_construction":false}},{"type":"Feature","geometry":{"type":"Point","coordinates":[-80.4220183074074,37.223306077777785]},"properties":{"building_id":"VT-COCHRANE-HALL","name":"Cochrane Hall","aliases":[],"osm_source":"relation/1205946","arrival_kind":"entrance","under_construction":false}},{"type":"Feature","geometry":{"type":"Point","coordinates":[-80.42090207999999,37.2306245]},"properties":{"building_id":"VT-COLLEGE-OF-LIBERAL-ARTS-AND-HUMAN-SCIENC","name":"College of Liberal Arts and Human Sciences Building","aliases":[],"osm_source":"way/60193819","arrival_kind":"nearby_path","under_construction":false}},{"type":"Feature","geometry":{"type":"Point","coordinates":[-80.42059181000002,37.231796290000005]},"properties":{"building_id":"VT-CORPS-LEADERSHIP-AND-MILITARY-SCIENCE-BU","name":"Corps Leadership and Military Science Building","aliases":[],"osm_source":"way/60193842","arrival_kind":"entrance","under_construction":false}},{"type":"Feature","geometry":{"type":"Point","coordinates":[-80.4247238625,37.229907025]},"properties":{"building_id":"VT-COWGILL-HALL","name":"Cowgill Hall","aliases":[],"osm_source":"way/60194005","arrival_kind":"entrance","under_construction":false}},{"type":"Feature","geometry":{"type":"Point","coordinates":[-80.41675315909092,37.22743690090909]},"properties":{"building_id":"VT-CREATIVITY-AND-INNOVATION-DISTRICT-LIVIN","name":"Creativity and Innovation District - Living Learning Community","aliases":[],"osm_source":"way/1091675333","arrival_kind":"entrance","under_construction":false}},{"type":"Feature","geometry":{"type":"Point","coordinates":[-80.42740933214283,37.23157429642857]},"properties":{"building_id":"VT-DDS","name":"Data and Decision Sciences Building","aliases":["DDS","D&DS","Data and Decision Sciences"],"osm_source":"way/1174211880","arrival_kind":"entrance","under_construction":false}},{"type":"Feature","geometry":{"type":"Point","coordinates":[-80.42516047619048,37.226983811904766]},"properties":{"building_id":"VT-DAVIDSON","name":"Davidson Hall","aliases":["Davidson"],"osm_source":"way/26210244","arrival_kind":"entrance","under_construction":false}},{"type":"Feature","geometry":{"type":"Point","coordinates":[-80.42557787142859,37.22917791785714]},"properties":{"building_id":"VT-DERRING","name":"Derring Hall","aliases":["Derring","Daring Hall","DER"],"osm_source":"way/43082478","arrival_kind":"entrance","under_construction":false}},{"type":"Feature","geometry":{"type":"Point","coordinates":[-80.42120896,37.22449216]},"properties":{"building_id":"VT-DIETRICK-HALL","name":"Dietrick Hall","aliases":[],"osm_source":"way/26210236","arrival_kind":"nearby_path","under_construction":false}},{"type":"Feature","geometry":{"type":"Point","coordinates":[-80.42374495333333,37.23164128666667]},"properties":{"building_id":"VT-DURHAM","name":"Durham Hall","aliases":["DURHM"],"osm_source":"way/54784088","arrival_kind":"entrance","under_construction":false}},{"type":"Feature","geometry":{"type":"Point","coordinates":[-80.41939552083335,37.227667316666675]},"properties":{"building_id":"VT-EGGLESTON-HALL-EAST-WING","name":"Eggleston Hall - East Wing","aliases":[],"osm_source":"relation/1360465","arrival_kind":"entrance","under_construction":false}},{"type":"Feature","geometry":{"type":"Point","coordinates":[-80.42007495384615,37.227443821153855]},"properties":{"building_id":"VT-EGGLESTON-HALL-MAIN-WING","name":"Eggleston Hall - Main Wing","aliases":[],"osm_source":"relation/1360469","arrival_kind":"entrance","under_construction":false}},{"type":"Feature","geometry":{"type":"Point","coordinates":[-80.42017400769234,37.22687067179487]},"properties":{"building_id":"VT-EGGLESTON-HALL-WEST-WING","name":"Eggleston Hall - West Wing","aliases":[],"osm_source":"relation/1360466","arrival_kind":"entrance","under_construction":false}},{"type":"Feature","geometry":{"type":"Point","coordinates":[-80.4235448125,37.2236851125]},"properties":{"building_id":"VT-ENGEL-HALL","name":"Engel Hall","aliases":[],"osm_source":"relation/20377303","arrival_kind":"entrance","under_construction":false}},{"type":"Feature","geometry":{"type":"Point","coordinates":[-80.425792675,37.232328061111126]},"properties":{"building_id":"VT-GOODWIN","name":"Goodwin Hall","aliases":["Goodwin","GOODW"],"osm_source":"way/357515790","arrival_kind":"entrance","under_construction":false}},{"type":"Feature","geometry":{"type":"Point","coordinates":[-80.41762069722225,37.228415841666674]},"properties":{"building_id":"VT-GRADUATE-LIFE-CENTER-AT-DONALDSON-BROWN","name":"Graduate Life Center at Donaldson Brown","aliases":[],"osm_source":"way/32709465","arrival_kind":"entrance","under_construction":false}},{"type":"Feature","geometry":{"type":"Point","coordinates":[-80.42416956666666,37.219194566666665]},"properties":{"building_id":"VT-HAHN-GARDEN-MARQUEE","name":"Hahn Garden Marquee","aliases":[],"osm_source":"way/425164295","arrival_kind":"nearby_path","under_construction":false}},{"type":"Feature","geometry":{"type":"Point","coordinates":[-80.42416956666666,37.219194566666665]},"properties":{"building_id":"VT-HAHN-GARDEN-PAVILION","name":"Hahn Garden Pavilion","aliases":[],"osm_source":"way/425164295","arrival_kind":"nearby_path","under_construction":false}},{"type":"Feature","geometry":{"type":"Point","coordinates":[-80.42625353555555,37.2282915311111]},"properties":{"building_id":"VT-HAHN-HALL-NORTH-WING","name":"Hahn Hall - North Wing","aliases":[],"osm_source":"way/43313684","arrival_kind":"entrance","under_construction":false}},{"type":"Feature","geometry":{"type":"Point","coordinates":[-80.42569141785712,37.227898307142866]},"properties":{"building_id":"VT-HAHN-HALL-SOUTH-WING","name":"Hahn Hall - South Wing","aliases":[],"osm_source":"way/60193988","arrival_kind":"entrance","under_construction":false}},{"type":"Feature","geometry":{"type":"Point","coordinates":[-80.41810406190477,37.22339791904762]},"properties":{"building_id":"VT-HAHN-HURST-BASKETBALL-PRACTICE-FACILITY","name":"Hahn-Hurst Basketball Practice Facility","aliases":[],"osm_source":"way/43933398","arrival_kind":"nearby_path","under_construction":false}},{"type":"Feature","geometry":{"type":"Point","coordinates":[-80.42308728421052,37.222697902631566]},"properties":{"building_id":"VT-HARPER-HALL","name":"Harper Hall","aliases":[],"osm_source":"way/32954437","arrival_kind":"entrance","under_construction":false}},{"type":"Feature","geometry":{"type":"Point","coordinates":[-80.41681093225809,37.23044818064516]},"properties":{"building_id":"VT-HENDERSON-HALL","name":"Henderson Hall","aliases":[],"osm_source":"way/54789305","arrival_kind":"entrance","under_construction":false}},{"type":"Feature","geometry":{"type":"Point","coordinates":[-80.42499452857143,37.22384598928572]},"properties":{"building_id":"VT-HILLCREST-HALL","name":"Hillcrest Hall","aliases":[],"osm_source":"way/26210157","arrival_kind":"entrance","under_construction":false}},{"type":"Feature","geometry":{"type":"Point","coordinates":[-80.42604025142857,37.22949567714285]},"properties":{"building_id":"VT-HITT","name":"Hitt Hall","aliases":["Hitt","Perry Place","HITT"],"osm_source":"way/1299635706","arrival_kind":"entrance","under_construction":false}},{"type":"Feature","geometry":{"type":"Point","coordinates":[-80.41848445599999,37.224468484000006]},"properties":{"building_id":"VT-HOGE-HALL","name":"Hoge Hall","aliases":[],"osm_source":"way/32709325","arrival_kind":"entrance","under_construction":false}},{"type":"Feature","geometry":{"type":"Point","coordinates":[-80.42223961904764,37.230164557142864]},"properties":{"building_id":"VT-HOLDEN-HALL","name":"Holden Hall","aliases":[],"osm_source":"way/742733438","arrival_kind":"nearby_path","under_construction":false}},{"type":"Feature","geometry":{"type":"Point","coordinates":[-80.4230046590909,37.22562695]},"properties":{"building_id":"VT-HUTCHESON-HALL","name":"Hutcheson Hall","aliases":[],"osm_source":"way/55760103","arrival_kind":"nearby_path","under_construction":false}},{"type":"Feature","geometry":{"type":"Point","coordinates":[-80.4241323372093,37.230131048837215]},"properties":{"building_id":"VT-HANCOCK","name":"John W. Hancock Jr. Hall","aliases":["Hancock Hall","Hancock","HAN"],"osm_source":"way/54784074","arrival_kind":"entrance","under_construction":false}},{"type":"Feature","geometry":{"type":"Point","coordinates":[-80.41774745142858,37.225562877142856]},"properties":{"building_id":"VT-JOHNSON-HALL","name":"Johnson Hall","aliases":[],"osm_source":"way/60193854","arrival_kind":"entrance","under_construction":false}},{"type":"Feature","geometry":{"type":"Point","coordinates":[-80.42452356874999,37.22919050625]},"properties":{"building_id":"VT-JOHNSTON-STUDENT-CENTER","name":"Johnston Student Center","aliases":[],"osm_source":"relation/20369223","arrival_kind":"entrance","under_construction":false}},{"type":"Feature","geometry":{"type":"Point","coordinates":[-80.42452356874999,37.22919050625]},"properties":{"building_id":"VT-JOHNSTON-STUDENT-CENTER-ELEVATOR-TOWER","name":"Johnston Student Center Elevator Tower","aliases":[],"osm_source":"relation/20369223","arrival_kind":"entrance","under_construction":false}},{"type":"Feature","geometry":{"type":"Point","coordinates":[-80.4223035037037,37.23137999629629]},"properties":{"building_id":"VT-KELLY","name":"Kelly Hall","aliases":["KELLY"],"osm_source":"relation/2417941","arrival_kind":"entrance","under_construction":false}},{"type":"Feature","geometry":{"type":"Point","coordinates":[-80.41977202500001,37.2308846]},"properties":{"building_id":"VT-LANE-HALL","name":"Lane Hall","aliases":[],"osm_source":"way/60193838","arrival_kind":"entrance","under_construction":false}},{"type":"Feature","geometry":{"type":"Point","coordinates":[-80.41813546024842,37.21995840310559]},"properties":{"building_id":"VT-LANE-STADIUM-EAST-STANDS","name":"Lane Stadium (east stands)","aliases":[],"osm_source":"relation/2417911","arrival_kind":"entrance","under_construction":false}},{"type":"Feature","geometry":{"type":"Point","coordinates":[-80.41813546024842,37.21995840310559]},"properties":{"building_id":"VT-LANE-STADIUM-NORTH-END-ZONE","name":"Lane Stadium (north end zone)","aliases":[],"osm_source":"relation/2417911","arrival_kind":"entrance","under_construction":false}},{"type":"Feature","geometry":{"type":"Point","coordinates":[-80.41813546024842,37.21995840310559]},"properties":{"building_id":"VT-LANE-STADIUM-SOUTH-END-ZONE","name":"Lane Stadium (south end zone)","aliases":[],"osm_source":"relation/2417911","arrival_kind":"entrance","under_construction":false}},{"type":"Feature","geometry":{"type":"Point","coordinates":[-80.41813546024842,37.21995840310559]},"properties":{"building_id":"VT-LANE-STADIUM-WEST-STANDS","name":"Lane Stadium (west stands)","aliases":[],"osm_source":"relation/2417911","arrival_kind":"entrance","under_construction":false}},{"type":"Feature","geometry":{"type":"Point","coordinates":[-80.42268235384616,37.22461922692308]},"properties":{"building_id":"VT-LATHAM-HALL","name":"Latham Hall","aliases":[],"osm_source":"relation/1074687","arrival_kind":"entrance","under_construction":false}},{"type":"Feature","geometry":{"type":"Point","coordinates":[-80.42281666875002,37.231148581250004]},"properties":{"building_id":"VT-LAVERY-HALL","name":"Lavery Hall","aliases":["Lavery","Turner","Turner Place"],"osm_source":"relation/2060142","arrival_kind":"entrance","under_construction":false}},{"type":"Feature","geometry":{"type":"Point","coordinates":[-80.42625353555555,37.2282915311111]},"properties":{"building_id":"VT-LEWAS-LAB","name":"LEWAS Lab","aliases":[],"osm_source":"way/43313684","arrival_kind":"entrance","under_construction":false}},{"type":"Feature","geometry":{"type":"Point","coordinates":[-80.42397635918368,37.22158163265307]},"properties":{"building_id":"VT-LITTON-REAVES-HALL","name":"Litton-Reaves Hall","aliases":[],"osm_source":"way/26210118","arrival_kind":"entrance","under_construction":false}},{"type":"Feature","geometry":{"type":"Point","coordinates":[-80.42072131923075,37.23103903076924]},"properties":{"building_id":"VT-MAJOR-WILLIAMS-HALL","name":"Major Williams Hall","aliases":[],"osm_source":"way/60193831","arrival_kind":"entrance","under_construction":false}},{"type":"Feature","geometry":{"type":"Point","coordinates":[-80.42174742586207,37.23054070172414]},"properties":{"building_id":"VT-MCBRYDE","name":"McBryde Hall","aliases":["MCB"],"osm_source":"way/43082481","arrival_kind":"entrance","under_construction":false}},{"type":"Feature","geometry":{"type":"Point","coordinates":[-80.4224163653846,37.22047632307692]},"properties":{"building_id":"VT-MCCOMAS-HALL","name":"McComas Hall","aliases":[],"osm_source":"relation/1165680","arrival_kind":"entrance","under_construction":false}},{"type":"Feature","geometry":{"type":"Point","coordinates":[-80.41532746,37.2288177]},"properties":{"building_id":"VT-MEDIA-BUILDING","name":"Media Building","aliases":[],"osm_source":"way/32935323","arrival_kind":"entrance","under_construction":false}},{"type":"Feature","geometry":{"type":"Point","coordinates":[-80.41908518148148,37.22160556296296]},"properties":{"building_id":"VT-MERRYMAN-ATHLETIC-FACILITY","name":"Merryman Athletic Facility","aliases":[],"osm_source":"way/25705821","arrival_kind":"entrance","under_construction":false}},{"type":"Feature","geometry":{"type":"Point","coordinates":[-80.41695844838709,37.225537203225805]},"properties":{"building_id":"VT-MILES-HALL","name":"Miles Hall","aliases":[],"osm_source":"way/60193835","arrival_kind":"nearby_path","under_construction":false}},{"type":"Feature","geometry":{"type":"Point","coordinates":[-80.42149978,37.231851060000004]},"properties":{"building_id":"VT-MILITARY-BUILDING-LAUNDRY","name":"Military Building / Laundry","aliases":["Military Building"],"osm_source":"way/43527635","arrival_kind":"nearby_path","under_construction":false}},{"type":"Feature","geometry":{"type":"Point","coordinates":[-80.42328051176473,37.231122094117644]},"properties":{"building_id":"VT-MITCHELL","name":"Mitchell Hall (under construction, 2028)","aliases":["MITCH"],"osm_source":"way/461103807","arrival_kind":"nearby_path","under_construction":true}},{"type":"Feature","geometry":{"type":"Point","coordinates":[-80.42258473749999,37.222208075]},"properties":{"building_id":"VT-NEW-HALL-WEST","name":"New Hall West","aliases":[],"osm_source":"way/43933397","arrival_kind":"entrance","under_construction":false}},{"type":"Feature","geometry":{"type":"Point","coordinates":[-80.41923842777777,37.22572281388889]},"properties":{"building_id":"VT-NEW-RESIDENCE-HALL-EAST","name":"New Residence Hall East","aliases":[],"osm_source":"way/60193951","arrival_kind":"entrance","under_construction":false}},{"type":"Feature","geometry":{"type":"Point","coordinates":[-80.41786637209302,37.22618365813953]},"properties":{"building_id":"VT-NEWMAN-HALL","name":"Newman Hall","aliases":[],"osm_source":"way/33533412","arrival_kind":"entrance","under_construction":false}},{"type":"Feature","geometry":{"type":"Point","coordinates":[-80.42306182272728,37.22982457727273]},"properties":{"building_id":"VT-NORRIS-HALL","name":"Norris Hall","aliases":[],"osm_source":"way/60193992","arrival_kind":"nearby_path","under_construction":false}},{"type":"Feature","geometry":{"type":"Point","coordinates":[-80.41830661290322,37.22540364193548]},"properties":{"building_id":"VT-O-SHAUGHNESSY-HALL","name":"O'Shaughnessy Hall","aliases":[],"osm_source":"way/60193840","arrival_kind":"entrance","under_construction":false}},{"type":"Feature","geometry":{"type":"Point","coordinates":[-80.42159408,37.231509259999996]},"properties":{"building_id":"VT-OLD-SECURITY-BUILDING","name":"Old Security Building","aliases":[],"osm_source":"way/43525170","arrival_kind":"nearby_path","under_construction":false}},{"type":"Feature","geometry":{"type":"Point","coordinates":[-80.41896399062503,37.226740043750006]},"properties":{"building_id":"VT-OWENS-HALL","name":"Owens Hall","aliases":[],"osm_source":"way/60193832","arrival_kind":"entrance","under_construction":false}},{"type":"Feature","geometry":{"type":"Point","coordinates":[-80.42476224705881,37.22856709705883]},"properties":{"building_id":"VT-PAMPLIN","name":"Pamplin Hall","aliases":["Pamplin","Hamlin Hall","PAM"],"osm_source":"relation/1074688","arrival_kind":"entrance","under_construction":false}},{"type":"Feature","geometry":{"type":"Point","coordinates":[-80.42623108695653,37.231228486956525]},"properties":{"building_id":"VT-PARKING-STRUCTURE-PERRY-STREET-LOT","name":"Parking Structure - Perry Street Lot","aliases":[],"osm_source":"way/70947790","arrival_kind":"entrance","under_construction":false}},{"type":"Feature","geometry":{"type":"Point","coordinates":[-80.42221805370372,37.22922820925925]},"properties":{"building_id":"VT-PATTON-HALL","name":"Patton Hall","aliases":[],"osm_source":"way/60193996","arrival_kind":"entrance","under_construction":false}},{"type":"Feature","geometry":{"type":"Point","coordinates":[-80.42001362307693,37.22582408461538]},"properties":{"building_id":"VT-PAYNE-HALL","name":"Payne Hall","aliases":[],"osm_source":"relation/19285997","arrival_kind":"entrance","under_construction":false}},{"type":"Feature","geometry":{"type":"Point","coordinates":[-80.41904591304346,37.23100718695651]},"properties":{"building_id":"VT-PEARSON-HALL-EAST","name":"Pearson Hall East","aliases":[],"osm_source":"way/181182287","arrival_kind":"entrance","under_construction":false}},{"type":"Feature","geometry":{"type":"Point","coordinates":[-80.42000062000001,37.23035881333333]},"properties":{"building_id":"VT-PEARSON-HALL-WEST","name":"Pearson Hall West","aliases":[],"osm_source":"way/181182264","arrival_kind":"entrance","under_construction":false}},{"type":"Feature","geometry":{"type":"Point","coordinates":[-80.41999300270271,37.22512163243243]},"properties":{"building_id":"VT-PEDDREW-YATES-HALL","name":"Peddrew-Yates Hall","aliases":[],"osm_source":"way/60193952","arrival_kind":"nearby_path","under_construction":false}},{"type":"Feature","geometry":{"type":"Point","coordinates":[-80.42407300624998,37.22575791875]},"properties":{"building_id":"VT-PRICE-HALL","name":"Price Hall","aliases":[],"osm_source":"way/32953605","arrival_kind":"nearby_path","under_construction":false}},{"type":"Feature","geometry":{"type":"Point","coordinates":[-80.41976636363637,37.22426797272728]},"properties":{"building_id":"VT-PRITCHARD-HALL","name":"Pritchard Hall","aliases":[],"osm_source":"relation/308029","arrival_kind":"entrance","under_construction":false}},{"type":"Feature","geometry":{"type":"Point","coordinates":[-80.41605373636364,37.21873971363636]},"properties":{"building_id":"VT-PUBLIC-SAFETY-BUILDING","name":"Public Safety Building","aliases":[],"osm_source":"way/60193825","arrival_kind":"entrance","under_construction":false}},{"type":"Feature","geometry":{"type":"Point","coordinates":[-80.42525963043478,37.22802729130434]},"properties":{"building_id":"VT-ROBESON-HALL","name":"Robeson Hall","aliases":[],"osm_source":"way/60194002","arrival_kind":"entrance","under_construction":false}},{"type":"Feature","geometry":{"type":"Point","coordinates":[-80.42352729090909,37.22584222727273]},"properties":{"building_id":"VT-SANDY-HALL","name":"Sandy Hall","aliases":[],"osm_source":"way/32953606","arrival_kind":"nearby_path","under_construction":false}},{"type":"Feature","geometry":{"type":"Point","coordinates":[-80.42436955555554,37.22493088888889]},"properties":{"building_id":"VT-SAUNDERS-HALL","name":"Saunders Hall","aliases":[],"osm_source":"way/32955264","arrival_kind":"nearby_path","under_construction":false}},{"type":"Feature","geometry":{"type":"Point","coordinates":[-80.42373927333333,37.2248512]},"properties":{"building_id":"VT-SEITZ-HALL","name":"Seitz Hall","aliases":[],"osm_source":"way/43310773","arrival_kind":"nearby_path","under_construction":false}},{"type":"Feature","geometry":{"type":"Point","coordinates":[-80.41972678918923,37.23165428378379]},"properties":{"building_id":"VT-SHANKS-HALL","name":"Shanks Hall","aliases":[],"osm_source":"way/60193829","arrival_kind":"entrance","under_construction":false}},{"type":"Feature","geometry":{"type":"Point","coordinates":[-80.42157018524593,37.225329421311464]},"properties":{"building_id":"VT-SLUSHER-HALL","name":"Slusher Hall","aliases":[],"osm_source":"relation/1360467","arrival_kind":"entrance","under_construction":false}},{"type":"Feature","geometry":{"type":"Point","coordinates":[-80.42251590909092,37.221588000000004]},"properties":{"building_id":"VT-SMITH-CAREER-CENTER","name":"Smith Career Center","aliases":[],"osm_source":"way/43520198","arrival_kind":"entrance","under_construction":false}},{"type":"Feature","geometry":{"type":"Point","coordinates":[-80.42312853749998,37.22511336875]},"properties":{"building_id":"VT-SMYTH-HALL","name":"Smyth Hall","aliases":[],"osm_source":"way/55760105","arrival_kind":"nearby_path","under_construction":false}},{"type":"Feature","geometry":{"type":"Point","coordinates":[-80.42686319411764,37.226182300000005]},"properties":{"building_id":"VT-SOLITUDE","name":"Solitude","aliases":[],"osm_source":"way/54784067","arrival_kind":"nearby_path","under_construction":false}},{"type":"Feature","geometry":{"type":"Point","coordinates":[-80.41605373636364,37.21873971363636]},"properties":{"building_id":"VT-SOUTHGATE-CENTER","name":"Southgate Center","aliases":[],"osm_source":"way/60193825","arrival_kind":"entrance","under_construction":false}},{"type":"Feature","geometry":{"type":"Point","coordinates":[-80.41801377916669,37.22956369791667]},"properties":{"building_id":"VT-SQUIRES","name":"Squires Student Center","aliases":["SQUIR"],"osm_source":"way/32937985","arrival_kind":"entrance","under_construction":false}},{"type":"Feature","geometry":{"type":"Point","coordinates":[-80.4263975375,37.2210466725]},"properties":{"building_id":"VT-STEGER-HALL-NORTH-WING","name":"Steger Hall - North Wing","aliases":[],"osm_source":"way/157809564","arrival_kind":"nearby_path","under_construction":false}},{"type":"Feature","geometry":{"type":"Point","coordinates":[-80.4263975375,37.2210466725]},"properties":{"building_id":"VT-STEGER-HALL-SOUTH-WING","name":"Steger Hall - South Wing","aliases":[],"osm_source":"way/157809564","arrival_kind":"nearby_path","under_construction":false}},{"type":"Feature","geometry":{"type":"Point","coordinates":[-80.42181725454546,37.22210182727272]},"properties":{"building_id":"VT-STUDENT-SERVICES-BUILDING","name":"Student Services Building","aliases":[],"osm_source":"way/43520197","arrival_kind":"nearby_path","under_construction":false}},{"type":"Feature","geometry":{"type":"Point","coordinates":[-80.42314755,37.23310019]},"properties":{"building_id":"VT-SURGE-SPACE-BUILDING","name":"Surge Space Building","aliases":[],"osm_source":"way/43315949","arrival_kind":"entrance","under_construction":false}},{"type":"Feature","geometry":{"type":"Point","coordinates":[-80.41636888,37.2302773]},"properties":{"building_id":"VT-THEATER-101","name":"Theater 101","aliases":[],"osm_source":"way/43531163","arrival_kind":"nearby_path","under_construction":false}},{"type":"Feature","geometry":{"type":"Point","coordinates":[-80.41991329042554,37.229765970212775]},"properties":{"building_id":"VT-TORGERSEN","name":"Torgersen Hall","aliases":["Torgersen","Torgersen Bridge","TORG"],"osm_source":"relation/1074689","arrival_kind":"entrance","under_construction":false}},{"type":"Feature","geometry":{"type":"Point","coordinates":[-80.4258506,37.23067384615384]},"properties":{"building_id":"VT-TRANSIT-CENTER","name":"Transit Center","aliases":[],"osm_source":"way/1296745993","arrival_kind":"entrance","under_construction":false}},{"type":"Feature","geometry":{"type":"Point","coordinates":[-80.42744878709675,37.22999935806451]},"properties":{"building_id":"VT-UNDERGRADUATE-SCIENCE-LABORATORY-BUILDIN","name":"Undergraduate Science Laboratory Building","aliases":[],"osm_source":"way/1296211919","arrival_kind":"entrance","under_construction":false}},{"type":"Feature","geometry":{"type":"Point","coordinates":[-80.418540595,37.228124745]},"properties":{"building_id":"VT-UNIVERSITY-BOOKSTORE","name":"University Bookstore","aliases":[],"osm_source":"way/32709473","arrival_kind":"entrance","under_construction":false}},{"type":"Feature","geometry":{"type":"Point","coordinates":[-80.42127486923076,37.231200580769226]},"properties":{"building_id":"VT-UPPER-QUAD-HALL-NORTH","name":"Upper Quad Hall North","aliases":[],"osm_source":"way/1199644143","arrival_kind":"entrance","under_construction":false}},{"type":"Feature","geometry":{"type":"Point","coordinates":[-80.41767182499997,37.22706487857143]},"properties":{"building_id":"VT-VAWTER-HALL","name":"Vawter Hall","aliases":[],"osm_source":"way/60193821","arrival_kind":"entrance","under_construction":false}},{"type":"Feature","geometry":{"type":"Point","coordinates":[-80.43406308888888,37.230842888888894]},"properties":{"building_id":"VT-VISITORS-UNDERGRADUATE-ADMISSIONS-CENTER","name":"Visitors & Undergraduate Admissions Center","aliases":[],"osm_source":"way/124289342","arrival_kind":"nearby_path","under_construction":false}},{"type":"Feature","geometry":{"type":"Point","coordinates":[-80.42429854827586,37.223005937931035]},"properties":{"building_id":"VT-WALLACE-HALL","name":"Wallace Hall","aliases":[],"osm_source":"way/60193837","arrival_kind":"entrance","under_construction":false}},{"type":"Feature","geometry":{"type":"Point","coordinates":[-80.42038688571428,37.22887814285715]},"properties":{"building_id":"VT-WAR-MEMORIAL-CHAPEL","name":"War Memorial Chapel","aliases":[],"osm_source":"way/49151374","arrival_kind":"nearby_path","under_construction":false}},{"type":"Feature","geometry":{"type":"Point","coordinates":[-80.42072247777779,37.22645351333333]},"properties":{"building_id":"VT-WAR-MEMORIAL-GYMNASIUM","name":"War Memorial Gymnasium","aliases":[],"osm_source":"way/32954440","arrival_kind":"entrance","under_construction":false}},{"type":"Feature","geometry":{"type":"Point","coordinates":[-80.41680845714286,37.226207185714294]},"properties":{"building_id":"VT-WHITEHURST-HALL","name":"Whitehurst Hall","aliases":[],"osm_source":"way/60193862","arrival_kind":"entrance","under_construction":false}},{"type":"Feature","geometry":{"type":"Point","coordinates":[-80.42430376666665,37.231081446666664]},"properties":{"building_id":"VT-WHITTEMORE","name":"Whittemore Hall","aliases":["WHIT"],"osm_source":"way/55861902","arrival_kind":"entrance","under_construction":false}},{"type":"Feature","geometry":{"type":"Point","coordinates":[-80.42437938181817,37.22789398484849]},"properties":{"building_id":"VT-WILLIAMS","name":"Williams Hall","aliases":[],"osm_source":"way/60193985","arrival_kind":"entrance","under_construction":false}},{"type":"Feature","geometry":{"type":"Point","coordinates":[-80.42619846923078,37.22680332307692]},"properties":{"building_id":"VT-WRIGHT-HOUSE","name":"Wright House","aliases":[],"osm_source":"way/54784069","arrival_kind":"nearby_path","under_construction":false}}]}
