{"type":"FeatureCollection","features":[{"type":"Feature","geometry":{"type":"Polygon","coordinates":[[[-80.4178279,37.2265192],[-80.4176803,37.2266361],[-80.4174999,37.2265135],[-80.4176813,37.2264221],[-80.4178279,37.2265192]]]},"properties":{"id":"1560765617","name":"Construction area","source":"OSM + supplied OSC","closed":true}},{"type":"Feature","geometry":{"type":"Polygon","coordinates":[[[-80.4257939,37.2280039],[-80.4256341,37.2281271],[-80.4257798,37.2282672],[-80.4259481,37.2281245],[-80.4257939,37.2280039]]]},"properties":{"id":"1560765618","name":"Construction area","source":"OSM + supplied OSC","closed":true}},{"type":"Feature","geometry":{"type":"Polygon","coordinates":[[[-80.4205193,37.2292253],[-80.4200211,37.2286983],[-80.420623,37.2285342],[-80.4209547,37.2288628],[-80.4205193,37.2292253]]]},"properties":{"id":"1560765620","name":"Construction area","source":"OSM + supplied OSC","closed":true}}]}
