{
  "type": "FeatureCollection",
  "name": "connectors",
  "crs": {
    "type": "name",
    "properties": {
      "name": "urn:ogc:def:crs:OGC:1.3/CRS84"
    }
  },
  "features": [
    {
      "type": "Feature",
      "geometry": null,
      "properties": {
        "connector_id": "VT-BURRUSS-ELEV-1",
        "building_id": "VT-BURRUSS",
        "from_node": "N-BURRUSS-L1",
        "to_node": "N-BURRUSS-L6",
        "connector_type": "elevator",
        "floors_served": "01-06",
        "accessibility_status": "step_free",
        "operational_status": "unknown",
        "confidence": "inferred",
        "display_tier": "UNKNOWN",
        "evidence_source": "CDCD floorplan 0176sa02.gif (2006)",
        "notes": "Car labelled ELEV. off the main foyer. Existence in 2026 NOT confirmed; cab and door dimensions unknown."
      }
    },
    {
      "type": "Feature",
      "geometry": null,
      "properties": {
        "connector_id": "VT-BURRUSS-STAIR-200A",
        "building_id": "VT-BURRUSS",
        "from_node": "N-BURRUSS-L1",
        "to_node": "N-BURRUSS-L2",
        "connector_type": "stairs",
        "floors_served": "01-02",
        "accessibility_status": "stairs",
        "operational_status": "unknown",
        "confidence": "inferred",
        "display_tier": "UNKNOWN",
        "evidence_source": "CDCD floorplan 0176sa02.gif (2006)",
        "notes": "Labelled STAIR 200A."
      }
    },
    {
      "type": "Feature",
      "geometry": null,
      "properties": {
        "connector_id": "VT-BURRUSS-STAIR-200B",
        "building_id": "VT-BURRUSS",
        "from_node": "N-BURRUSS-L1",
        "to_node": "N-BURRUSS-L2",
        "connector_type": "stairs",
        "floors_served": "01-02",
        "accessibility_status": "stairs",
        "operational_status": "unknown",
        "confidence": "inferred",
        "display_tier": "UNKNOWN",
        "evidence_source": "CDCD floorplan 0176sa02.gif (2006)",
        "notes": "Labelled STAIR 200B."
      }
    },
    {
      "type": "Feature",
      "geometry": null,
      "properties": {
        "connector_id": "VT-TORG-ELEV-B3",
        "building_id": "VT-TORGERSEN",
        "from_node": "N-TORGERSEN-L1",
        "to_node": "N-TORGERSEN-L3",
        "connector_type": "elevator",
        "floors_served": "01-03",
        "accessibility_status": "step_free",
        "operational_status": "unknown",
        "confidence": "inferred",
        "display_tier": "UNKNOWN",
        "evidence_source": "CDCD floorplan 0174sa02.gif (2006)",
        "notes": "Labelled ELEV. B3, west end."
      }
    },
    {
      "type": "Feature",
      "geometry": null,
      "properties": {
        "connector_id": "VT-TORG-ELEV-B15",
        "building_id": "VT-TORGERSEN",
        "from_node": "N-TORGERSEN-L1",
        "to_node": "N-TORGERSEN-L3",
        "connector_type": "elevator",
        "floors_served": "01-03",
        "accessibility_status": "step_free",
        "operational_status": "unknown",
        "confidence": "inferred",
        "display_tier": "UNKNOWN",
        "evidence_source": "CDCD floorplan 0174sa02.gif (2006)",
        "notes": "Labelled ELEV. B15, centre."
      }
    },
    {
      "type": "Feature",
      "geometry": null,
      "properties": {
        "connector_id": "VT-TORG-NEWMAN-BRIDGE",
        "building_id": "VT-TORGERSEN",
        "from_node": "N-TORGERSEN-L2",
        "to_node": "N-NEWMAN-LIB-L3",
        "connector_type": "bridge",
        "floors_served": "T02-L03",
        "accessibility_status": "unknown",
        "operational_status": "unknown",
        "confidence": "inferred",
        "display_tier": "UNKNOWN",
        "evidence_source": "CDCD floorplan 0174sa02.gif (2006)",
        "notes": "ENCLOSED BRIDGE over Alumni Mall: Torgersen floor 2 to Newman Library floor 3. connector_type corrected from the lift placeholder to bridge."
      }
    },
    {
      "type": "Feature",
      "geometry": null,
      "properties": {
        "connector_id": "VT-WHIT-BRIDGE-DURHAM",
        "building_id": "VT-WHITTEMORE",
        "from_node": "N-WHITTEMORE-L3",
        "to_node": "N-DURHAM-L3",
        "connector_type": "bridge",
        "floors_served": "03",
        "accessibility_status": "unknown",
        "operational_status": "unknown",
        "confidence": "community_report",
        "display_tier": "UNKNOWN",
        "evidence_source": "Gobblerpedia, Whittemore Hall",
        "notes": "3rd-floor patio bridge to Durham."
      }
    },
    {
      "type": "Feature",
      "geometry": null,
      "properties": {
        "connector_id": "VT-WHIT-BRIDGE-HANCOCK",
        "building_id": "VT-WHITTEMORE",
        "from_node": "N-WHITTEMORE-L3",
        "to_node": "N-HANCOCK-L3",
        "connector_type": "bridge",
        "floors_served": "03",
        "accessibility_status": "unknown",
        "operational_status": "unknown",
        "confidence": "community_report",
        "display_tier": "UNKNOWN",
        "evidence_source": "Gobblerpedia, Whittemore Hall",
        "notes": "3rd-floor patio bridge to Hancock."
      }
    },
    {
      "type": "Feature",
      "geometry": null,
      "properties": {
        "connector_id": "VT-SQUIRES-ELEV-1",
        "building_id": "VT-SQUIRES",
        "from_node": "N-SQUIRES-L1",
        "to_node": "N-SQUIRES-L4",
        "connector_type": "elevator",
        "floors_served": "00-04",
        "accessibility_status": "step_free",
        "operational_status": "unknown",
        "confidence": "inferred",
        "display_tier": "UNKNOWN",
        "evidence_source": "CDCD floorplan 0180sa01.gif (2006)",
        "notes": "Elevator and machine room visible on the 2006 plan."
      }
    },
    {
      "type": "Feature",
      "geometry": null,
      "properties": {
        "connector_id": "VT-SQUIRES-STAIR-A66",
        "building_id": "VT-SQUIRES",
        "from_node": "N-SQUIRES-L1",
        "to_node": "N-SQUIRES-L2",
        "connector_type": "stairs",
        "floors_served": "01-02",
        "accessibility_status": "stairs",
        "operational_status": "unknown",
        "confidence": "inferred",
        "display_tier": "UNKNOWN",
        "evidence_source": "CDCD floorplan 0180sa01.gif (2006)",
        "notes": "Labelled STAIRS A66."
      }
    },
    {
      "type": "Feature",
      "geometry": null,
      "properties": {
        "connector_id": "VT-MCBRYDE-VERT-UNKNOWN",
        "building_id": "VT-MCBRYDE",
        "from_node": "N-MCBRYDE-L1",
        "to_node": "N-MCBRYDE-L6",
        "connector_type": "unknown",
        "floors_served": "01-06",
        "accessibility_status": "unknown",
        "operational_status": "unknown",
        "confidence": "inferred",
        "display_tier": "UNKNOWN",
        "evidence_source": "Not inspected",
        "notes": "Plans 0151sa01-06 exist in the archive but were NOT opened. Placeholder."
      }
    },
    {
      "type": "Feature",
      "geometry": null,
      "properties": {
        "connector_id": "VT-GOODWIN-VERT-UNKNOWN",
        "building_id": "VT-GOODWIN",
        "from_node": "N-GOODWIN-L1",
        "to_node": "N-GOODWIN-L6",
        "connector_type": "unknown",
        "floors_served": "unknown",
        "accessibility_status": "unknown",
        "operational_status": "unknown",
        "confidence": "inferred",
        "display_tier": "UNKNOWN",
        "evidence_source": "NO DATA",
        "notes": "Opened 2014. No floorplan anywhere public. Must be surveyed."
      }
    },
    {
      "type": "Feature",
      "geometry": null,
      "properties": {
        "connector_id": "VT-NEWMAN-VERT-UNKNOWN",
        "building_id": "VT-NEWMAN-LIB",
        "from_node": "N-NEWMAN-LIB-L1",
        "to_node": "N-NEWMAN-LIB-L6",
        "connector_type": "unknown",
        "floors_served": "unknown",
        "accessibility_status": "unknown",
        "operational_status": "unknown",
        "confidence": "inferred",
        "display_tier": "UNKNOWN",
        "evidence_source": "NO DATA",
        "notes": "In the 2006 index but no plan file. Must be surveyed."
      }
    },
    {
      "type": "Feature",
      "geometry": null,
      "properties": {
        "connector_id": "VT-HITT-ELEV-1",
        "building_id": "VT-HITT",
        "from_node": "N-HITT-L1",
        "to_node": "N-HITT-L3",
        "connector_type": "elevator",
        "floors_served": "01-03",
        "accessibility_status": "step_free",
        "operational_status": "unknown",
        "confidence": "inferred",
        "display_tier": "UNKNOWN",
        "evidence_source": "VT Facilities, Hitt Hall project page",
        "notes": "VT states Hitt's classrooms, collaboration spaces and restrooms are ADA-compliant. A compliant 3-storey building must have an elevator, so one almost certainly exists - but its location, count and asset ID are NOT known."
      }
    },
    {
      "type": "Feature",
      "geometry": null,
      "properties": {
        "connector_id": "VT-HITT-STAIR-ATRIUM",
        "building_id": "VT-HITT",
        "from_node": "N-HITT-L1",
        "to_node": "N-HITT-L2",
        "connector_type": "stairs",
        "floors_served": "01-02",
        "accessibility_status": "stairs",
        "operational_status": "unknown",
        "confidence": "community_report",
        "display_tier": "UNKNOWN",
        "evidence_source": "VT Facilities social post showing the atrium",
        "notes": "Large feature staircase in the main atrium."
      }
    },
    {
      "type": "Feature",
      "geometry": null,
      "properties": {
        "connector_id": "VT-DDS-VERT-UNKNOWN",
        "building_id": "VT-DDS",
        "from_node": "N-DDS-L1",
        "to_node": "N-DDS-L4",
        "connector_type": "unknown",
        "floors_served": "unknown",
        "accessibility_status": "unknown",
        "operational_status": "unknown",
        "confidence": "inferred",
        "display_tier": "UNKNOWN",
        "evidence_source": "NO DATA",
        "notes": "Opened 2023. ADA-compliant by VT policy for new construction, but no elevator inventory obtained."
      }
    },
    {
      "type": "Feature",
      "geometry": null,
      "properties": {
        "connector_id": "VT-KELLY-VERT-UNKNOWN",
        "building_id": "VT-KELLY",
        "from_node": "N-KELLY-L1",
        "to_node": "N-KELLY-L4",
        "connector_type": "unknown",
        "floors_served": "unknown",
        "accessibility_status": "unknown",
        "operational_status": "unknown",
        "confidence": "inferred",
        "display_tier": "UNKNOWN",
        "evidence_source": "NO DATA",
        "notes": "Opened 2009. No plan in the archive. Must be surveyed."
      }
    },
    {
      "type": "Feature",
      "geometry": null,
      "properties": {
        "connector_id": "VT-CFA-VERT-UNKNOWN",
        "building_id": "VT-CFA",
        "from_node": "N-CFA-L1",
        "to_node": "N-CFA-L4",
        "connector_type": "unknown",
        "floors_served": "unknown",
        "accessibility_status": "unknown",
        "operational_status": "unknown",
        "confidence": "inferred",
        "display_tier": "UNKNOWN",
        "evidence_source": "NO DATA",
        "notes": "Opened 2013 on building number 188. The archive's two 0188 plans are SHULTZ HALL, a different building. Do not load them for this record."
      }
    },
    {
      "type": "Feature",
      "geometry": null,
      "properties": {
        "connector_id": "VT-MITCHELL-VERT-UNKNOWN",
        "building_id": "VT-MITCHELL",
        "from_node": "N-MITCHELL-L1",
        "to_node": "N-MITCHELL-L6",
        "connector_type": "unknown",
        "floors_served": "unknown",
        "accessibility_status": "unknown",
        "operational_status": "unknown",
        "confidence": "inferred",
        "display_tier": "UNKNOWN",
        "evidence_source": "NO DATA",
        "notes": "Building does not exist yet - completion 2028."
      }
    },
    {
      "type": "Feature",
      "geometry": null,
      "properties": {
        "connector_id": "00153-ELEV-HYD-0001",
        "building_id": "VT-PAMPLIN",
        "from_node": "N-PAMPLIN-L0",
        "to_node": "N-PAMPLIN-L3",
        "connector_type": "elevator",
        "floors_served": "00-03",
        "accessibility_status": "step_free",
        "operational_status": "available",
        "confidence": "official",
        "operational_confidence": "official",
        "display_tier": "CONFIRMED",
        "evidence_source": "VT Facilities 'Critical Elevators' layer (arcgis-central.gis.vt.edu/arcgis/rest/services/facilities/CriticalElevators), elevator_id 00153-ELEV-HYD-0001, last edited 2026-04-07",
        "notes": "Passenger elevator, functional as of 2026-04-07 per VT Facilities. Standard cab elevator."
      }
    },
    {
      "type": "Feature",
      "geometry": null,
      "properties": {
        "connector_id": "00153-ELEV-HYD-0002",
        "building_id": "VT-PAMPLIN",
        "from_node": "N-PAMPLIN-L0",
        "to_node": "N-PAMPLIN-L3",
        "connector_type": "elevator",
        "floors_served": "00-03",
        "accessibility_status": "step_free",
        "operational_status": "available",
        "confidence": "official",
        "operational_confidence": "official",
        "display_tier": "CONFIRMED",
        "evidence_source": "VT Facilities 'Critical Elevators' layer (arcgis-central.gis.vt.edu/arcgis/rest/services/facilities/CriticalElevators), elevator_id 00153-ELEV-HYD-0002, last edited 2026-04-07",
        "notes": "Passenger elevator, functional as of 2026-04-07 per VT Facilities. Standard cab elevator."
      }
    },
    {
      "type": "Feature",
      "geometry": null,
      "properties": {
        "connector_id": "00176-ELEV-TRC-0001",
        "building_id": "VT-BURRUSS",
        "from_node": "N-BURRUSS-L1",
        "to_node": "N-BURRUSS-L3",
        "connector_type": "elevator",
        "floors_served": "01-03",
        "accessibility_status": "step_free",
        "operational_status": "available",
        "confidence": "official",
        "operational_confidence": "official",
        "display_tier": "CONFIRMED",
        "evidence_source": "VT Facilities 'Critical Elevators' layer (arcgis-central.gis.vt.edu/arcgis/rest/services/facilities/CriticalElevators), elevator_id 00176-ELEV-TRC-0001, last edited 2026-04-07",
        "notes": "Passenger elevator, functional as of 2026-04-07 per VT Facilities. Standard cab elevator."
      }
    },
    {
      "type": "Feature",
      "geometry": null,
      "properties": {
        "connector_id": "00134-ELEV-TRC-0002",
        "building_id": "VT-WHITTEMORE",
        "from_node": "N-WHITTEMORE-L1",
        "to_node": "N-WHITTEMORE-L6",
        "connector_type": "elevator",
        "floors_served": "01-06",
        "accessibility_status": "step_free",
        "operational_status": "available",
        "confidence": "official",
        "operational_confidence": "official",
        "display_tier": "CONFIRMED",
        "evidence_source": "VT Facilities 'Critical Elevators' layer (arcgis-central.gis.vt.edu/arcgis/rest/services/facilities/CriticalElevators), elevator_id 00134-ELEV-TRC-0002, last edited 2026-05-01",
        "notes": "Freight elevator, functional as of 2026-05-01 per VT Facilities. Standard cab elevator."
      }
    },
    {
      "type": "Feature",
      "geometry": null,
      "properties": {
        "connector_id": "00134-ELEV-TRC-0001",
        "building_id": "VT-WHITTEMORE",
        "from_node": "N-WHITTEMORE-L1",
        "to_node": "N-WHITTEMORE-L6",
        "connector_type": "elevator",
        "floors_served": "01-06",
        "accessibility_status": "step_free",
        "operational_status": "closed",
        "confidence": "official",
        "operational_confidence": "official",
        "display_tier": "CONFIRMED",
        "evidence_source": "VT Facilities 'Critical Elevators' layer (arcgis-central.gis.vt.edu/arcgis/rest/services/facilities/CriticalElevators), elevator_id 00134-ELEV-TRC-0001, last edited 2026-05-01",
        "notes": "Passenger elevator, CLOSED for repairs as of 2026-05-01 per VT Facilities. Standard cab elevator."
      }
    },
    {
      "type": "Feature",
      "geometry": null,
      "properties": {
        "connector_id": "00151-ELEV-TRC-0001",
        "building_id": "VT-MCBRYDE",
        "from_node": "N-MCBRYDE-L1",
        "to_node": "N-MCBRYDE-L6",
        "connector_type": "elevator",
        "floors_served": "01-06",
        "accessibility_status": "step_free",
        "operational_status": "closed",
        "confidence": "official",
        "operational_confidence": "official",
        "display_tier": "CONFIRMED",
        "evidence_source": "VT Facilities 'Critical Elevators' layer (arcgis-central.gis.vt.edu/arcgis/rest/services/facilities/CriticalElevators), elevator_id 00151-ELEV-TRC-0001, last edited 2026-09-08",
        "notes": "Passenger elevator, CLOSED for repairs as of 2026-09-08 per VT Facilities. Standard cab elevator."
      }
    },
    {
      "type": "Feature",
      "geometry": null,
      "properties": {
        "connector_id": "00188-ELEV-HYD-0003",
        "building_id": "VT-CFA",
        "from_node": "N-CFA-L1",
        "to_node": "N-CFA-L2",
        "connector_type": "elevator",
        "floors_served": "01-02",
        "accessibility_status": "step_free",
        "operational_status": "available",
        "confidence": "official",
        "operational_confidence": "official",
        "display_tier": "CONFIRMED",
        "evidence_source": "VT Facilities 'Critical Elevators' layer (arcgis-central.gis.vt.edu/arcgis/rest/services/facilities/CriticalElevators), elevator_id 00188-ELEV-HYD-0003, last edited 2026-04-07",
        "notes": "Passenger elevator, functional as of 2026-04-07 per VT Facilities. Standard cab elevator."
      }
    },
    {
      "type": "Feature",
      "geometry": null,
      "properties": {
        "connector_id": "00177-ELEV-TRC-0001",
        "building_id": "VT-NEWMAN-LIB",
        "from_node": "N-NEWMAN-LIB-L1",
        "to_node": "N-NEWMAN-LIB-L6",
        "connector_type": "elevator",
        "floors_served": "01-06",
        "accessibility_status": "step_free",
        "operational_status": "available",
        "confidence": "official",
        "operational_confidence": "official",
        "display_tier": "CONFIRMED",
        "evidence_source": "VT Facilities 'Critical Elevators' layer (arcgis-central.gis.vt.edu/arcgis/rest/services/facilities/CriticalElevators), elevator_id 00177-ELEV-TRC-0001, last edited 2026-04-07",
        "notes": "Passenger elevator, functional as of 2026-04-07 per VT Facilities. Standard cab elevator."
      }
    },
    {
      "type": "Feature",
      "geometry": null,
      "properties": {
        "connector_id": "00180-ELEV-HYD-7116",
        "building_id": "VT-SQUIRES",
        "from_node": "N-SQUIRES-L1",
        "to_node": "N-SQUIRES-L3",
        "connector_type": "elevator",
        "floors_served": "01-03",
        "accessibility_status": "step_free",
        "operational_status": "available",
        "confidence": "official",
        "operational_confidence": "official",
        "display_tier": "CONFIRMED",
        "evidence_source": "VT Facilities 'Critical Elevators' layer (arcgis-central.gis.vt.edu/arcgis/rest/services/facilities/CriticalElevators), elevator_id 00180-ELEV-HYD-7116, last edited 2026-04-13",
        "notes": "Passenger elevator, functional as of 2026-04-13 per VT Facilities. Standard cab elevator."
      }
    },
    {
      "type": "Feature",
      "geometry": null,
      "properties": {
        "connector_id": "00155-ELEV-TRC-0001",
        "building_id": "VT-DERRING",
        "from_node": "N-DERRING-L1",
        "to_node": "N-DERRING-L5",
        "connector_type": "elevator",
        "floors_served": "01-05",
        "accessibility_status": "step_free",
        "operational_status": "available",
        "confidence": "official",
        "operational_confidence": "official",
        "display_tier": "CONFIRMED",
        "evidence_source": "VT Facilities 'Critical Elevators' layer (arcgis-central.gis.vt.edu/arcgis/rest/services/facilities/CriticalElevators), elevator_id 00155-ELEV-TRC-0001, last edited 2026-04-07",
        "notes": "Passenger elevator, functional as of 2026-04-07 per VT Facilities. Standard cab elevator."
      }
    },
    {
      "type": "Feature",
      "geometry": null,
      "properties": {
        "connector_id": "00174-ELEV-HYD-0002",
        "building_id": "VT-TORGERSEN",
        "from_node": "N-TORGERSEN-L1",
        "to_node": "N-TORGERSEN-L3",
        "connector_type": "elevator",
        "floors_served": "01-03",
        "accessibility_status": "step_free",
        "operational_status": "available",
        "confidence": "official",
        "operational_confidence": "official",
        "display_tier": "CONFIRMED",
        "evidence_source": "VT Facilities 'Critical Elevators' layer (arcgis-central.gis.vt.edu/arcgis/rest/services/facilities/CriticalElevators), elevator_id 00174-ELEV-HYD-0002, last edited 2026-04-23",
        "notes": "Passenger elevator, functional as of 2026-04-23 per VT Facilities. Standard cab elevator."
      }
    },
    {
      "type": "Feature",
      "geometry": null,
      "properties": {
        "connector_id": "00177-ELEV-TRC-0004",
        "building_id": "VT-NEWMAN-LIB",
        "from_node": "N-NEWMAN-LIB-L1",
        "to_node": "N-NEWMAN-LIB-L5",
        "connector_type": "elevator",
        "floors_served": "01-05",
        "accessibility_status": "step_free",
        "operational_status": "available",
        "confidence": "official",
        "operational_confidence": "official",
        "display_tier": "CONFIRMED",
        "evidence_source": "VT Facilities 'Critical Elevators' layer (arcgis-central.gis.vt.edu/arcgis/rest/services/facilities/CriticalElevators), elevator_id 00177-ELEV-TRC-0004, last edited 2026-04-07",
        "notes": "Passenger elevator, functional as of 2026-04-07 per VT Facilities. Standard cab elevator."
      }
    },
    {
      "type": "Feature",
      "geometry": null,
      "properties": {
        "connector_id": "00155-ELEV-TRC-0002",
        "building_id": "VT-DERRING",
        "from_node": "N-DERRING-L1",
        "to_node": "N-DERRING-L5",
        "connector_type": "elevator",
        "floors_served": "01-05",
        "accessibility_status": "step_free",
        "operational_status": "available",
        "confidence": "official",
        "operational_confidence": "official",
        "display_tier": "CONFIRMED",
        "evidence_source": "VT Facilities 'Critical Elevators' layer (arcgis-central.gis.vt.edu/arcgis/rest/services/facilities/CriticalElevators), elevator_id 00155-ELEV-TRC-0002, last edited 2026-04-07",
        "notes": "Passenger elevator, functional as of 2026-04-07 per VT Facilities. Standard cab elevator."
      }
    },
    {
      "type": "Feature",
      "geometry": null,
      "properties": {
        "connector_id": "00176-ELEV-HYD-0002",
        "building_id": "VT-BURRUSS",
        "from_node": "N-BURRUSS-L1",
        "to_node": "N-BURRUSS-L3",
        "connector_type": "elevator",
        "floors_served": "01-03",
        "accessibility_status": "step_free",
        "operational_status": "available",
        "confidence": "official",
        "operational_confidence": "official",
        "display_tier": "CONFIRMED",
        "evidence_source": "VT Facilities 'Critical Elevators' layer (arcgis-central.gis.vt.edu/arcgis/rest/services/facilities/CriticalElevators), elevator_id 00176-ELEV-HYD-0002, last edited 2026-07-29",
        "notes": "Passenger elevator, functional as of 2026-07-29 per VT Facilities. Standard cab elevator."
      }
    },
    {
      "type": "Feature",
      "geometry": null,
      "properties": {
        "connector_id": "0133C-ELEV-HYD-0001",
        "building_id": "VT-HANCOCK",
        "from_node": "N-HANCOCK-L0",
        "to_node": "N-HANCOCK-L2",
        "connector_type": "elevator",
        "floors_served": "00-02",
        "accessibility_status": "step_free",
        "operational_status": "available",
        "confidence": "official",
        "operational_confidence": "official",
        "display_tier": "CONFIRMED",
        "evidence_source": "VT Facilities 'Critical Elevators' layer (arcgis-central.gis.vt.edu/arcgis/rest/services/facilities/CriticalElevators), elevator_id 0133C-ELEV-HYD-0001, last edited 2026-04-07",
        "notes": "Passenger elevator, functional as of 2026-04-07 per VT Facilities. Standard cab elevator."
      }
    },
    {
      "type": "Feature",
      "geometry": null,
      "properties": {
        "connector_id": "00129-ELEV-HYD-0001",
        "building_id": "VT-KELLY",
        "from_node": "N-KELLY-L1",
        "to_node": "N-KELLY-L4",
        "connector_type": "elevator",
        "floors_served": "01-04",
        "accessibility_status": "step_free",
        "operational_status": "available",
        "confidence": "official",
        "operational_confidence": "official",
        "display_tier": "CONFIRMED",
        "evidence_source": "VT Facilities 'Critical Elevators' layer (arcgis-central.gis.vt.edu/arcgis/rest/services/facilities/CriticalElevators), elevator_id 00129-ELEV-HYD-0001, last edited 2026-06-04",
        "notes": "Passenger elevator, functional as of 2026-06-04 per VT Facilities. Standard cab elevator."
      }
    },
    {
      "type": "Feature",
      "geometry": null,
      "properties": {
        "connector_id": "00126-ELEV-HYD-0002",
        "building_id": "VT-DURHAM",
        "from_node": "N-DURHAM-L1",
        "to_node": "N-DURHAM-L4",
        "connector_type": "elevator",
        "floors_served": "01-04",
        "accessibility_status": "step_free",
        "operational_status": "closed",
        "confidence": "official",
        "operational_confidence": "official",
        "display_tier": "CONFIRMED",
        "evidence_source": "VT Facilities 'Critical Elevators' layer (arcgis-central.gis.vt.edu/arcgis/rest/services/facilities/CriticalElevators), elevator_id 00126-ELEV-HYD-0002, last edited 2026-04-07",
        "notes": "Passenger elevator, CLOSED for repairs as of 2026-04-07 per VT Facilities. Standard cab elevator."
      }
    },
    {
      "type": "Feature",
      "geometry": null,
      "properties": {
        "connector_id": "00151-ELEV-TRC-0002",
        "building_id": "VT-MCBRYDE",
        "from_node": "N-MCBRYDE-L1",
        "to_node": "N-MCBRYDE-L6",
        "connector_type": "elevator",
        "floors_served": "01-06",
        "accessibility_status": "step_free",
        "operational_status": "closed",
        "confidence": "official",
        "operational_confidence": "official",
        "display_tier": "CONFIRMED",
        "evidence_source": "VT Facilities 'Critical Elevators' layer (arcgis-central.gis.vt.edu/arcgis/rest/services/facilities/CriticalElevators), elevator_id 00151-ELEV-TRC-0002, last edited 2026-09-08",
        "notes": "Passenger elevator, CLOSED for repairs as of 2026-09-08 per VT Facilities. Standard cab elevator."
      }
    },
    {
      "type": "Feature",
      "geometry": null,
      "properties": {
        "connector_id": "00188-ELEV-HYD-0006",
        "building_id": "VT-CFA",
        "from_node": "N-CFA-L1",
        "to_node": "N-CFA-L5",
        "connector_type": "elevator",
        "floors_served": "01-05",
        "accessibility_status": "step_free",
        "operational_status": "available",
        "confidence": "official",
        "operational_confidence": "official",
        "display_tier": "CONFIRMED",
        "evidence_source": "VT Facilities 'Critical Elevators' layer (arcgis-central.gis.vt.edu/arcgis/rest/services/facilities/CriticalElevators), elevator_id 00188-ELEV-HYD-0006, last edited 2026-04-07",
        "notes": "Passenger elevator, functional as of 2026-04-07 per VT Facilities. Standard cab elevator."
      }
    },
    {
      "type": "Feature",
      "geometry": null,
      "properties": {
        "connector_id": "00188-ELEV-HYD-0004",
        "building_id": "VT-CFA",
        "from_node": "N-CFA-L1",
        "to_node": "N-CFA-L2",
        "connector_type": "elevator",
        "floors_served": "01-02",
        "accessibility_status": "step_free",
        "operational_status": "available",
        "confidence": "official",
        "operational_confidence": "official",
        "display_tier": "CONFIRMED",
        "evidence_source": "VT Facilities 'Critical Elevators' layer (arcgis-central.gis.vt.edu/arcgis/rest/services/facilities/CriticalElevators), elevator_id 00188-ELEV-HYD-0004, last edited 2026-04-07",
        "notes": "Passenger elevator, functional as of 2026-04-07 per VT Facilities. Standard cab elevator."
      }
    },
    {
      "type": "Feature",
      "geometry": null,
      "properties": {
        "connector_id": "00188-ELEV-TRC-0002",
        "building_id": "VT-CFA",
        "from_node": "N-CFA-L1",
        "to_node": "N-CFA-L3",
        "connector_type": "elevator",
        "floors_served": "01-03",
        "accessibility_status": "step_free",
        "operational_status": "available",
        "confidence": "official",
        "operational_confidence": "official",
        "display_tier": "CONFIRMED",
        "evidence_source": "VT Facilities 'Critical Elevators' layer (arcgis-central.gis.vt.edu/arcgis/rest/services/facilities/CriticalElevators), elevator_id 00188-ELEV-TRC-0002, last edited 2026-04-07",
        "notes": "Passenger elevator, functional as of 2026-04-07 per VT Facilities. Standard cab elevator."
      }
    },
    {
      "type": "Feature",
      "geometry": null,
      "properties": {
        "connector_id": "00188-ELEV-TRC-0001",
        "building_id": "VT-CFA",
        "from_node": "N-CFA-L1",
        "to_node": "N-CFA-L3",
        "connector_type": "elevator",
        "floors_served": "01-03",
        "accessibility_status": "step_free",
        "operational_status": "available",
        "confidence": "official",
        "operational_confidence": "official",
        "display_tier": "CONFIRMED",
        "evidence_source": "VT Facilities 'Critical Elevators' layer (arcgis-central.gis.vt.edu/arcgis/rest/services/facilities/CriticalElevators), elevator_id 00188-ELEV-TRC-0001, last edited 2026-04-07",
        "notes": "Passenger elevator, functional as of 2026-04-07 per VT Facilities. Standard cab elevator."
      }
    },
    {
      "type": "Feature",
      "geometry": null,
      "properties": {
        "connector_id": "00177-ELEV-TRC-0002",
        "building_id": "VT-NEWMAN-LIB",
        "from_node": "N-NEWMAN-LIB-L1",
        "to_node": "N-NEWMAN-LIB-L6",
        "connector_type": "elevator",
        "floors_served": "01-06",
        "accessibility_status": "step_free",
        "operational_status": "closed",
        "confidence": "official",
        "operational_confidence": "official",
        "display_tier": "CONFIRMED",
        "evidence_source": "VT Facilities 'Critical Elevators' layer (arcgis-central.gis.vt.edu/arcgis/rest/services/facilities/CriticalElevators), elevator_id 00177-ELEV-TRC-0002, last edited 2026-08-26",
        "notes": "Passenger elevator, CLOSED for repairs as of 2026-08-26 per VT Facilities. Standard cab elevator."
      }
    },
    {
      "type": "Feature",
      "geometry": null,
      "properties": {
        "connector_id": "00136-ELEV-TRC-0002",
        "building_id": "VT-GOODWIN",
        "from_node": "N-GOODWIN-L1",
        "to_node": "N-GOODWIN-L4",
        "connector_type": "elevator",
        "floors_served": "01-04",
        "accessibility_status": "step_free",
        "operational_status": "closed",
        "confidence": "official",
        "operational_confidence": "official",
        "display_tier": "CONFIRMED",
        "evidence_source": "VT Facilities 'Critical Elevators' layer (arcgis-central.gis.vt.edu/arcgis/rest/services/facilities/CriticalElevators), elevator_id 00136-ELEV-TRC-0002, last edited 2026-09-16",
        "notes": "Passenger elevator, CLOSED for repairs as of 2026-09-16 per VT Facilities. Standard cab elevator."
      }
    },
    {
      "type": "Feature",
      "geometry": null,
      "properties": {
        "connector_id": "00136-ELEV-TRC-0001",
        "building_id": "VT-GOODWIN",
        "from_node": "N-GOODWIN-L1",
        "to_node": "N-GOODWIN-L4",
        "connector_type": "elevator",
        "floors_served": "01-04",
        "accessibility_status": "step_free",
        "operational_status": "available",
        "confidence": "official",
        "operational_confidence": "official",
        "display_tier": "CONFIRMED",
        "evidence_source": "VT Facilities 'Critical Elevators' layer (arcgis-central.gis.vt.edu/arcgis/rest/services/facilities/CriticalElevators), elevator_id 00136-ELEV-TRC-0001, last edited 2026-04-07",
        "notes": "Passenger elevator, functional as of 2026-04-07 per VT Facilities. Standard cab elevator."
      }
    },
    {
      "type": "Feature",
      "geometry": null,
      "properties": {
        "connector_id": "00180-ELEV-HYD-0004",
        "building_id": "VT-SQUIRES",
        "from_node": "N-SQUIRES-L1",
        "to_node": "N-SQUIRES-L2",
        "connector_type": "elevator",
        "floors_served": "01-02",
        "accessibility_status": "step_free",
        "operational_status": "closed",
        "confidence": "official",
        "operational_confidence": "official",
        "display_tier": "CONFIRMED",
        "evidence_source": "VT Facilities 'Critical Elevators' layer (arcgis-central.gis.vt.edu/arcgis/rest/services/facilities/CriticalElevators), elevator_id 00180-ELEV-HYD-0004, last edited 2026-04-21",
        "notes": "Freight elevator, CLOSED for repairs as of 2026-04-21 per VT Facilities. Standard cab elevator."
      }
    },
    {
      "type": "Feature",
      "geometry": null,
      "properties": {
        "connector_id": "00137-ELEV-0001",
        "building_id": "VT-DDS",
        "from_node": "N-DDS-L1",
        "to_node": "N-DDS-L5",
        "connector_type": "elevator",
        "floors_served": "01-05",
        "accessibility_status": "step_free",
        "operational_status": "available",
        "confidence": "official",
        "operational_confidence": "official",
        "display_tier": "CONFIRMED",
        "evidence_source": "VT Facilities 'Critical Elevators' layer (arcgis-central.gis.vt.edu/arcgis/rest/services/facilities/CriticalElevators), elevator_id 00137-ELEV-0001, last edited 2026-07-21",
        "notes": "Passenger elevator, functional as of 2026-07-21 per VT Facilities. Standard cab elevator."
      }
    },
    {
      "type": "Feature",
      "geometry": null,
      "properties": {
        "connector_id": "00137-ELEV-0002",
        "building_id": "VT-DDS",
        "from_node": "N-DDS-L1",
        "to_node": "N-DDS-L4",
        "connector_type": "elevator",
        "floors_served": "01-04",
        "accessibility_status": "step_free",
        "operational_status": "available",
        "confidence": "official",
        "operational_confidence": "official",
        "display_tier": "CONFIRMED",
        "evidence_source": "VT Facilities 'Critical Elevators' layer (arcgis-central.gis.vt.edu/arcgis/rest/services/facilities/CriticalElevators), elevator_id 00137-ELEV-0002, last edited 2026-04-07",
        "notes": "Passenger elevator, functional as of 2026-04-07 per VT Facilities. Standard cab elevator."
      }
    },
    {
      "type": "Feature",
      "geometry": null,
      "properties": {
        "connector_id": "00188-ELEV-0005",
        "building_id": "VT-CFA",
        "from_node": "N-CFA-L0",
        "to_node": "N-CFA-L1",
        "connector_type": "elevator",
        "floors_served": "00-01",
        "accessibility_status": "step_free",
        "operational_status": "available",
        "confidence": "official",
        "operational_confidence": "official",
        "display_tier": "CONFIRMED",
        "evidence_source": "VT Facilities 'Critical Elevators' layer (arcgis-central.gis.vt.edu/arcgis/rest/services/facilities/CriticalElevators), elevator_id 00188-ELEV-0005, last edited 2026-04-07",
        "notes": "Passenger elevator, functional as of 2026-04-07 per VT Facilities. Standard cab elevator."
      }
    }
  ]
}
